*******************************************************************************
JPL/HORIZONS              1237 Genevieve (1931 XB)         2023-Sep-04 11:10:59
Rec #:    1237 (+COV) Soln.date: 2023-Aug-21_19:15:45   # obs: 9480 (1908-2023)
 
IAU76/J2000 helio. ecliptic osc. elements (au, days, deg., period=Julian yrs):
 
  EPOCH=  2457638.5 ! 2016-Sep-07.00 (TDB)         Residual RMS= .23637
   EC= .07763084580155229  QR= 2.408893835841935   TP= 2457275.2640900109
   OM= 57.87499943209409   W=  305.794577071041    IN= 9.734740803406066
   A= 2.611637460855138    MA= 84.82493131857711   ADIST= 2.814381085868341
   PER= 4.22063            N= .233525731           ANGMOM= .027715663
   DAN= 2.48315            DDN= 2.71937            L= 4.0646976
   B= -7.8829466           MOID= 1.42256999        TP= 2015-Sep-09.7640900109
 
Asteroid physical parameters (km, seconds, rotational period in hours):
   GM= n.a.                RAD= 19.905             ROTPER= 16.37
   H= 10.86                G= .150                 B-V= .610
                           ALBEDO= .0585           STYP= n.a.

ASTEROID comments: 
1: soln ref.= JPL#61, OCC=0
2: source=ORB
*******************************************************************************


*******************************************************************************
Ephemeris / API_USER Mon Sep  4 11:10:59 2023 Pasadena, USA      / Horizons
*******************************************************************************
Target body name: 1237 Genevieve (1931 XB)        {source: JPL#61}
Center body name: Solar System Barycenter (0)     {source: DE441}
Center-site name: BODY CENTER
*******************************************************************************
Start time      : A.D. 2023-Aug-12 00:00:00.0000 TDB
Stop  time      : A.D. 2023-Aug-13 00:00:00.0000 TDB
Step-size       : 2880 minutes
*******************************************************************************
Center geodetic : 0.0, 0.0, 0.0                   {E-lon(deg),Lat(deg),Alt(km)}
Center cylindric: 0.0, 0.0, 0.0                   {E-lon(deg),Dxy(km),Dz(km)}
Center radii    : (undefined)
Small perturbers: Yes                             {source: SB441-N16}
Output units    : KM-S
Calendar mode   : Mixed Julian/Gregorian
Output type     : GEOMETRIC cartesian states
Output format   : 2 (position and velocity)
Reference frame : Ecliptic of J2000.0
*******************************************************************************
Initial IAU76/J2000 heliocentric ecliptic osculating elements (au, days, deg.):
  EPOCH=  2457638.5 ! 2016-Sep-07.00 (TDB)         Residual RMS= .23637        
   EC= .07763084580155229  QR= 2.408893835841935   TP= 2457275.2640900109      
   OM= 57.87499943209409   W=  305.794577071041    IN= 9.734740803406066       
  Equivalent ICRF heliocentric cartesian coordinates (au, au/d):
   X=-3.156227230073008E-01  Y= 2.250516298300454E+00  Z= 1.281705714391132E+00
  VX=-1.053458374733110E-02 VY=-1.149932735884241E-03 VZ= 1.108614520869596E-03
Asteroid physical parameters (km, seconds, rotational period in hours):        
   GM= n.a.                RAD= 19.905             ROTPER= 16.37               
   H= 10.86                G= .150                 B-V= .610                   
                           ALBEDO= .0585           STYP= n.a.                  
*******************************************************************************
JDTDB
   X     Y     Z
   VX    VY    VZ
*******************************************************************************
$$SOE
2460168.500000000 = A.D. 2023-Aug-12 00:00:00.0000 TDB 
 X = 2.434006812144893E+08 Y =-2.729282589673669E+08 Z =-6.041100460763909E+07
 VX= 1.353502524147013E+01 VY= 1.382879725231904E+01 VZ=-7.005012651579472E-01
$$EOE
*******************************************************************************
 
TIME

  Barycentric Dynamical Time ("TDB" or T_eph) output was requested. This
continuous coordinate time is equivalent to the relativistic proper time
of a clock at rest in a reference frame co-moving with the solar system
barycenter but outside the system's gravity well. It is the independent
variable in the solar system relativistic equations of motion.

  TDB runs at a uniform rate of one SI second per second and is independent
of irregularities in Earth's rotation.
 
CALENDAR SYSTEM

  Mixed calendar mode was active such that calendar dates after AD 1582-Oct-15
(if any) are in the modern Gregorian system. Dates prior to 1582-Oct-5 (if any)
are in the Julian calendar system, which is automatically extended for dates
prior to its adoption on 45-Jan-1 BC.  The Julian calendar is useful for
matching historical dates. The Gregorian calendar more accurately corresponds
to the Earth's orbital motion and seasons. A "Gregorian-only" calendar mode is
available if such physical events are the primary interest.

REFERENCE FRAME AND COORDINATES

  Ecliptic at the standard reference epoch

    Reference epoch: J2000.0
    X-Y plane: adopted Earth orbital plane at the reference epoch
               Note: IAU76 obliquity of 84381.448 arcseconds wrt ICRF X-Y plane
    X-axis   : ICRF
    Z-axis   : perpendicular to the X-Y plane in the directional (+ or -) sense
               of Earth's north pole at the reference epoch.

  Symbol meaning:

    JDTDB    Julian Day Number, Barycentric Dynamical Time
      X      X-component of position vector (km)
      Y      Y-component of position vector (km)
      Z      Z-component of position vector (km)
      VX     X-component of velocity vector (km/sec)                           
      VY     Y-component of velocity vector (km/sec)                           
      VZ     Z-component of velocity vector (km/sec)                           

ABERRATIONS AND CORRECTIONS

 Geometric state vectors have NO corrections or aberrations applied.

Computations by ...

    Solar System Dynamics Group, Horizons On-Line Ephemeris System
    4800 Oak Grove Drive, Jet Propulsion Laboratory
    Pasadena, CA  91109   USA

    General site: https://ssd.jpl.nasa.gov/
    Mailing list: https://ssd.jpl.nasa.gov/email_list.html
    System news : https://ssd.jpl.nasa.gov/horizons/news.html
    User Guide  : https://ssd.jpl.nasa.gov/horizons/manual.html
    Connect     : browser        https://ssd.jpl.nasa.gov/horizons/app.html#/x
                  API            https://ssd-api.jpl.nasa.gov/doc/horizons.html
                  command-line   telnet ssd.jpl.nasa.gov 6775
                  e-mail/batch   https://ssd.jpl.nasa.gov/ftp/ssd/hrzn_batch.txt
                  scripts        https://ssd.jpl.nasa.gov/ftp/ssd/SCRIPTS
    Author      : Jon.D.Giorgini@jpl.nasa.gov
*******************************************************************************
